FLOCK 4H-33             
1 66736U 25276BY  26187.67867933  .00005976  00000+0  27162-3 0  9990
2 66736  97.4210 261.2914 0001925 184.9793 175.1424 15.21122258 33409
FLOCK 4H-34             
1 66737U 25276BZ  26187.72945875  .00005477  00000+0  25184-3 0  9997
2 66737  97.4225 261.2676 0001717 195.6035 164.5148 15.20761067 32655
FLOCK 4H-35             
1 66738U 25276CA  26187.17950617  .00007021  00000+0  32078-3 0  9994
2 66738  97.4185 260.6667 0001769 171.4969 188.6296 15.20877274 32614
FLOCK 4H-36             
1 66739U 25276CB  26187.67728638  .00005399  00000+0  24911-3 0  9999
2 66739  97.4235 261.2095 0001588 215.8514 144.2615 15.20648828 33391
