{"fetched_at":"2026-07-07T07:58:12.386Z","source":"https://celestrak.org/NORAD/elements/gp.php?GROUP=planet&FORMAT=JSON","constellation":"superdove","records":[{"OBJECT_NAME":"FLOCK 4H-33","OBJECT_ID":"2025-276BY","EPOCH":"2026-07-06T16:17:17.894112","CLASSIFICATION_TYPE":"U","MEAN_MOTION":15.21122258,"ECCENTRICITY":0.0001925,"INCLINATION":97.421,"RA_OF_ASC_NODE":261.2914,"ARG_OF_PERICENTER":184.9793,"MEAN_ANOMALY":175.1424,"EPHEMERIS_TYPE":0,"NORAD_CAT_ID":66736,"ELEMENT_SET_NO":999,"REV_AT_EPOCH":3340,"BSTAR":0.00027162,"MEAN_MOTION_DOT":0.00005976,"MEAN_MOTION_DDOT":0},{"OBJECT_NAME":"FLOCK 4H-34","OBJECT_ID":"2025-276BZ","EPOCH":"2026-07-06T17:30:25.236000","CLASSIFICATION_TYPE":"U","MEAN_MOTION":15.20761067,"ECCENTRICITY":0.0001717,"INCLINATION":97.4225,"RA_OF_ASC_NODE":261.2676,"ARG_OF_PERICENTER":195.6035,"MEAN_ANOMALY":164.5148,"EPHEMERIS_TYPE":0,"NORAD_CAT_ID":66737,"ELEMENT_SET_NO":999,"REV_AT_EPOCH":3265,"BSTAR":0.00025184,"MEAN_MOTION_DOT":0.00005477,"MEAN_MOTION_DDOT":0},{"OBJECT_NAME":"FLOCK 4H-35","OBJECT_ID":"2025-276CA","EPOCH":"2026-07-06T04:18:29.333088","CLASSIFICATION_TYPE":"U","MEAN_MOTION":15.20877274,"ECCENTRICITY":0.00017695,"INCLINATION":97.4185,"RA_OF_ASC_NODE":260.6667,"ARG_OF_PERICENTER":171.4969,"MEAN_ANOMALY":188.6296,"EPHEMERIS_TYPE":0,"NORAD_CAT_ID":66738,"ELEMENT_SET_NO":999,"REV_AT_EPOCH":3261,"BSTAR":0.00032078255,"MEAN_MOTION_DOT":0.00007021,"MEAN_MOTION_DDOT":0},{"OBJECT_NAME":"FLOCK 4H-36","OBJECT_ID":"2025-276CB","EPOCH":"2026-07-06T16:15:17.543232","CLASSIFICATION_TYPE":"U","MEAN_MOTION":15.20648828,"ECCENTRICITY":0.0001588,"INCLINATION":97.4235,"RA_OF_ASC_NODE":261.2095,"ARG_OF_PERICENTER":215.8514,"MEAN_ANOMALY":144.2615,"EPHEMERIS_TYPE":0,"NORAD_CAT_ID":66739,"ELEMENT_SET_NO":999,"REV_AT_EPOCH":3339,"BSTAR":0.00024911,"MEAN_MOTION_DOT":0.00005399,"MEAN_MOTION_DDOT":0}]}
